NAVSTAR 77 (USA 289)    
1 43873U 18109A   23237.17300046 -.00000007  00000+0  00000+0 0  9998
2 43873  55.1898 132.7678 0025454 191.5471 336.0532  2.00568387 34474
